{
  "links" : {
    "next" : "https://api.nasa.gov/neo/rest/v1/feed?start_date=2005-05-16&end_date=2005-05-16&detailed=true&api_key=t0TVs3DtDT2H8Oy2Zy8m2eVrNsAVKAexjcZXUckd",
    "prev" : "https://api.nasa.gov/neo/rest/v1/feed?start_date=2005-05-14&end_date=2005-05-14&detailed=true&api_key=t0TVs3DtDT2H8Oy2Zy8m2eVrNsAVKAexjcZXUckd",
    "self" : "https://api.nasa.gov/neo/rest/v1/feed?start_date=2005-05-15&end_date=2005-05-15&detailed=true&api_key=t0TVs3DtDT2H8Oy2Zy8m2eVrNsAVKAexjcZXUckd"
  },
  "element_count" : 7,
  "near_earth_objects" : {
    "2005-05-15" : [ {
      "links" : {
        "self" : "https://api.nasa.gov/neo/rest/v1/neo/3684730?api_key=t0TVs3DtDT2H8Oy2Zy8m2eVrNsAVKAexjcZXUckd"
      },
      "neo_reference_id" : "3684730",
      "name" : "(2014 QE365)",
      "nasa_jpl_url" : "http://ssd.jpl.nasa.gov/sbdb.cgi?sstr=3684730",
      "absolute_magnitude_h" : 21.0,
      "estimated_diameter" : {
        "kilometers" : {
          "estimated_diameter_min" : 0.1677084622,
          "estimated_diameter_max" : 0.3750075218
        },
        "meters" : {
          "estimated_diameter_min" : 167.7084621628,
          "estimated_diameter_max" : 375.0075217981
        },
        "miles" : {
          "estimated_diameter_min" : 0.1042091748,
          "estimated_diameter_max" : 0.2330187988
        },
        "feet" : {
          "estimated_diameter_min" : 550.2246310023,
          "estimated_diameter_max" : 1230.3396778159
        }
      },
      "is_potentially_hazardous_asteroid" : false,
      "close_approach_data" : [ {
        "close_approach_date" : "2005-05-15",
        "epoch_date_close_approach" : 1116140400000,
        "relative_velocity" : {
          "kilometers_per_second" : "9.9288201126",
          "kilometers_per_hour" : "35743.7524053431",
          "miles_per_hour" : "22209.7777098645"
        },
        "miss_distance" : {
          "astronomical" : "0.4657202598",
          "lunar" : "181.1651763916",
          "kilometers" : "69670760",
          "miles" : "43291404"
        },
        "orbiting_body" : "Earth"
      } ],
      "orbital_data" : {
        "orbit_id" : "8",
        "orbit_determination_date" : "2017-07-21 17:42:02",
        "orbit_uncertainty" : "3",
        "minimum_orbit_intersection" : ".160257",
        "jupiter_tisserand_invariant" : "6.678",
        "epoch_osculation" : "2458000.5",
        "eccentricity" : ".5403987975131028",
        "semi_major_axis" : ".8645032153163674",
        "inclination" : "16.11051952565454",
        "ascending_node_longitude" : "151.8445779225763",
        "orbital_period" : "293.5947911182117",
        "perihelion_distance" : ".3973267173131915",
        "perihelion_argument" : "352.9349692801855",
        "aphelion_distance" : "1.331679713319543",
        "perihelion_time" : "2457873.258509870335",
        "mean_anomaly" : "156.0209439418701",
        "mean_motion" : "1.22617979232149",
        "equinox" : "J2000"
      }
    } ]
  }
}